[{"OBJECT_NAME":"SORAYA","OBJECT_ID":"2024-015A","EPOCH":"2026-03-09T23:47:27.347136","MEAN_MOTION":14.4267567,"ECCENTRICITY":0.00145543,"INCLINATION":64.5174,"RA_OF_ASC_NODE":9.0228,"ARG_OF_PERICENTER":231.7358,"MEAN_ANOMALY":128.2419,"EPHEMERIS_TYPE":0,"CLASSIFICATION_TYPE":"U","NORAD_CAT_ID":58817,"ELEMENT_SET_NO":999,"REV_AT_EPOCH":11246,"BSTAR":9.0214372e-5,"MEAN_MOTION_DOT":1.94e-6,"MEAN_MOTION_DDOT":0},{"OBJECT_NAME":"IRIDIUM 69","OBJECT_ID":"1998-026A","EPOCH":"2026-03-09T18:38:59.943552","MEAN_MOTION":14.41321805,"ECCENTRICITY":0.00015517,"INCLINATION":86.4028,"RA_OF_ASC_NODE":343.1572,"ARG_OF_PERICENTER":164.588,"MEAN_ANOMALY":195.5368,"EPHEMERIS_TYPE":0,"CLASSIFICATION_TYPE":"U","NORAD_CAT_ID":25319,"ELEMENT_SET_NO":999,"REV_AT_EPOCH":46131,"BSTAR":0.00019416912,"MEAN_MOTION_DOT":6.48e-6,"MEAN_MOTION_DDOT":0}]
